NORAD_CAT_ID,OBJECT_NAME,OBJECT_TYPE,EPOCH,MEAN_MOTION,ECCENTRICITY,INCLINATION,RA_OF_ASC_NODE,ARG_OF_PERICENTER,MEAN_ANOMALY,BSTAR,MEAN_MOTION_DOT,MEAN_MOTION_DDOT,TLE_LINE0,TLE_LINE1,TLE_LINE2,SEMIMAJOR_AXIS,PERIOD,APOGEE,PERIGEE,DECAYED
53623.0,STARLINK-4573,PAYLOAD,2023-09-09 11:27:01,15.08840405,0.0001095,53.2206,9.0787,100.6555,259.4561,2.9121e-05,1.76e-06,0.0,0 STARLINK-4573,1 53623U 22104AM  23252.47710257  .00000176  00000-0  29121-4 0  9998,2 53623  53.2206   9.0787 0001095 100.6555 259.4561 15.08840405 57354,6917.879,95.438,540.502,538.987,0.0
53623.0,STARLINK-4573,PAYLOAD,2023-09-09 14:37:47,15.08843145,0.0001285,53.2189,8.4835,93.4274,266.6865,9.2797e-05,1.189e-05,0.0,0 STARLINK-4573,1 53623U 22104AM  23252.60958104  .00001189  00000-0  92797-4 0  9992,2 53623  53.2189   8.4835 0001285  93.4274 266.6865 15.08843145 58058,6917.871,95.437,540.625,538.847,0.0
53623.0,STARLINK-4573,PAYLOAD,2023-09-09 17:48:33,15.08851539,0.0001304,53.2191,7.8887,89.9874,270.1268,8.9992e-05,1.145e-05,0.0,0 STARLINK-4573,1 53623U 22104AM  23252.74205533  .00001145  00000-0  89992-4 0  9993,2 53623  53.2191   7.8887 0001304  89.9874 270.1268 15.08851539 57398,6917.845,95.437,540.612,538.808,0.0
53623.0,STARLINK-4573,PAYLOAD,2023-09-10 00:10:07,15.08834106,0.0001404,53.2202,6.7,93.391,266.7243,5.494e-05,5.86e-06,0.0,0 STARLINK-4573,1 53623U 22104AM  23253.00702736  .00000586  00000-0  54940-4 0  9993,2 53623  53.2202   6.7000 0001404  93.3910 266.7243 15.08834106 57437,6917.898,95.438,540.735,538.792,0.0
53623.0,STARLINK-4573,PAYLOAD,2023-09-10 11:17:48,15.0884197,0.000133,53.2202,4.6187,98.7324,261.3819,9.7516e-05,1.264e-05,0.0,0 STARLINK-4573,1 53623U 22104AM  23253.47070259  .00001264  00000-0  97516-4 0  9992,2 53623  53.2202   4.6187 0001330  98.7324 261.3819 15.08841970 57501,6917.874,95.437,540.659,538.819,0.0
53623.0,STARLINK-4573,PAYLOAD,2023-09-10 12:53:11,15.08842536,0.0001306,53.2194,4.321,91.8638,268.2503,0.00011955,1.615e-05,0.0,0 STARLINK-4573,1 53623U 22104AM  23253.53694246  .00001615  00000-0  11955-3 0  9999,2 53623  53.2194   4.3210 0001306  91.8638 268.2503 15.08842536 58191,6917.873,95.437,540.641,538.834,0.0
53623.0,STARLINK-4573,PAYLOAD,2023-09-10 14:28:34,15.08849044,0.0001211,53.2192,4.023,89.0207,271.0924,8.2898e-05,1.032e-05,0.0,0 STARLINK-4573,1 53623U 22104AM  23253.60317914  .00001032  00000-0  82898-4 0  9999,2 53623  53.2192   4.0230 0001211  89.0207 271.0924 15.08849044 57520,6917.853,95.437,540.555,538.88,0.0
53623.0,STARLINK-4573,PAYLOAD,2023-09-11 14:19:22,15.08842061,0.0001122,53.2193,359.5637,82.889,277.223,5.8121e-05,6.37e-06,0.0,0 STARLINK-4573,1 53623U 22104AM  23254.59678553  .00000637  00000-0  58121-4 0  9999,2 53623  53.2193 359.5637 0001122  82.8890 277.2230 15.08842061 58352,6917.874,95.437,540.515,538.963,0.0
53623.0,STARLINK-4573,PAYLOAD,2023-09-12 12:34:46,15.08844584,0.0001201,53.2178,355.4015,85.7742,274.3387,0.00010125,1.324e-05,0.0,0 STARLINK-4573,1 53623U 22104AM  23255.52414435  .00001324  00000-0  10125-3 0  9995,2 53623  53.2178 355.4015 0001201  85.7742 274.3387 15.08844584 58494,6917.866,95.437,540.562,538.901,0.0
53623.0,STARLINK-4573,PAYLOAD,2023-09-12 15:45:32,15.08852388,0.0001224,53.2179,354.8068,87.1227,272.9905,0.00021635,3.158e-05,0.0,0 STARLINK-4573,1 53623U 22104AM  23255.65662038  .00003158  00000-0  21635-3 0  9998,2 53623  53.2179 354.8068 0001224  87.1227 272.9905 15.08852388 57833,6917.843,95.437,540.554,538.861,0.0
53623.0,STARLINK-4573,PAYLOAD,2023-09-12 23:42:27,15.08843878,0.0001275,53.2188,353.3169,98.4263,261.6874,0.00010209,1.337e-05,0.0,0 STARLINK-4573,1 53623U 22104AM  23255.98782204  .00001337  00000-0  10209-3 0  9994,2 53623  53.2188 353.3169 0001275  98.4263 261.6874 15.08843878 57889,6917.869,95.437,540.616,538.852,0.0
53623.0,STARLINK-4573,PAYLOAD,2023-09-13 12:25:32,15.08852669,0.000132,53.2183,350.9411,87.7313,272.383,0.00024541,3.621e-05,0.0,0 STARLINK-4573,1 53623U 22104AM  23256.51773855  .00003621  00000-0  24541-3 0  9998,2 53623  53.2183 350.9411 0001320  87.7313 272.3830 15.08852669 58649,6917.842,95.437,540.62,538.794,0.0
53623.0,STARLINK-4573,PAYLOAD,2023-09-13 14:00:55,15.08862362,0.0001167,53.2179,350.6441,88.4705,271.6421,0.00039835,6.061e-05,0.0,0 STARLINK-4573,1 53623U 22104AM  23256.58397330  .00006061  00000-0  39835-3 0  9998,2 53623  53.2179 350.6441 0001167  88.4705 271.6421 15.08862362 57970,6917.812,95.436,540.484,538.87,0.0
53623.0,STARLINK-4573,PAYLOAD,2023-09-13 21:57:52,15.08809427,0.0001197,53.2176,349.1575,83.9102,276.2026,-0.00062903,-0.00010276,0.0,0 STARLINK-4573,1 53623U 22104AM  23256.91519265 -.00010276  00000-0 -62903-3 0  9995,2 53623  53.2176 349.1575 0001197  83.9102 276.2026 15.08809427 58709,6917.974,95.439,540.667,539.011,0.0
53623.0,STARLINK-4573,PAYLOAD,2023-09-13 23:33:15,15.08809973,0.0001285,53.2175,348.8601,77.6256,282.488,-0.00058939,-9.648e-05,0.0,0 STARLINK-4573,1 53623U 22104AM  23256.98143400 -.00009648  00000-0 -58939-3 0  9991,2 53623  53.2175 348.8601 0001285  77.6256 282.4880 15.08809973 58031,6917.972,95.439,540.726,538.948,0.0
53623.0,STARLINK-4573,PAYLOAD,2023-09-14 10:40:57,15.08813535,0.0001076,53.2176,346.7779,73.3697,286.7414,-0.00038974,-6.48e-05,0.0,0 STARLINK-4573,1 53623U 22104AM  23257.44511513 -.00006480  00000-0 -38974-3 0  9995,2 53623  53.2176 346.7779 0001076  73.3697 286.7414 15.08813535 58102,6917.961,95.439,540.571,539.082,0.0
53623.0,STARLINK-4573,PAYLOAD,2023-09-14 12:16:21,15.08812912,0.0001232,53.2174,346.48,73.2173,286.8954,-0.00015093,-2.687e-05,0.0,0 STARLINK-4573,1 53623U 22104AM  23257.51135596 -.00002687  00000-0 -15093-3 0  9998,2 53623  53.2174 346.4800 0001232  73.2173 286.8954 15.08812912 58797,6917.963,95.439,540.68,538.976,0.0
53623.0,STARLINK-4573,PAYLOAD,2023-09-14 13:51:44,15.08818023,0.0001234,53.2175,346.1827,72.0101,288.1025,0.00024899,3.675e-05,0.0,0 STARLINK-4573,1 53623U 22104AM  23257.57759710  .00003675  00000-0  24899-3 0  9994,2 53623  53.2175 346.1827 0001234  72.0101 288.1025 15.08818023 58809,6917.948,95.439,540.666,538.959,0.0
53623.0,STARLINK-4573,PAYLOAD,2023-09-14 23:24:04,15.08822577,0.0001352,53.2175,344.3989,62.9124,297.2005,0.0014779,0.000233,0.0,0 STARLINK-4573,1 53623U 22104AM  23257.97504734  .00023300  00000-0  14779-2 0  9994,2 53623  53.2175 344.3989 0001352  62.9124 297.2005 15.08822577 58181,6917.934,95.439,540.734,538.863,0.0
53623.0,STARLINK-4573,PAYLOAD,2023-09-15 12:07:09,15.08850917,0.0001445,53.2175,342.0204,60.8766,299.2371,0.0015025,0.00023712,0.0,0 STARLINK-4573,1 53623U 22104AM  23258.50496714  .00023712  00000-0  15025-2 0  9994,2 53623  53.2175 342.0204 0001445  60.8766 299.2371 15.08850917 58949,6917.847,95.437,540.712,538.712,0.0
53623.0,STARLINK-4573,PAYLOAD,2023-09-16 10:22:32,15.08860493,0.000149,53.2173,337.8572,61.9475,298.1668,0.00067571,0.00010488,0.0,0 STARLINK-4573,1 53623U 22104AM  23259.43232032  .00010488  00000-0  67571-3 0  9998,2 53623  53.2173 337.8572 0001490  61.9475 298.1668 15.08860493 58404,6917.818,95.436,540.714,538.652,0.0
53623.0,STARLINK-4573,PAYLOAD,2023-09-16 11:57:55,15.08859362,0.0001493,53.2174,337.5598,61.5782,298.536,0.00056247,8.68e-05,0.0,0 STARLINK-4573,1 53623U 22104AM  23259.49855948  .00008680  00000-0  56247-3 0  9990,2 53623  53.2174 337.5598 0001493  61.5782 298.5360 15.08859362 59092,6917.821,95.436,540.719,538.653,0.0
53623.0,STARLINK-4573,PAYLOAD,2023-09-17 10:13:18,15.08854694,0.000141,53.2182,333.3917,92.3791,267.7362,0.00027196,4.045e-05,0.0,0 STARLINK-4573,1 53623U 22104AM  23260.42591387  .00004045  00000-0  27196-3 0  9991,2 53623  53.2182 333.3917 0001410  92.3791 267.7362 15.08854694 58554,6917.835,95.437,540.676,538.725,0.0
53623.0,STARLINK-4573,PAYLOAD,2023-09-17 11:48:42,15.08852488,0.0001562,53.2183,333.0946,68.3962,291.7196,0.00014346,1.997e-05,0.0,0 STARLINK-4573,1 53623U 22104AM  23260.49215433  .00001997  00000-0  14346-3 0  9999,2 53623  53.2183 333.0946 0001562  68.3962 291.7196 15.08852488 59243,6917.842,95.437,540.788,538.627,0.0
53623.0,STARLINK-4573,PAYLOAD,2023-09-17 21:21:01,15.08842597,0.0002021,53.2176,331.3129,75.2452,284.8764,-3.3853e-05,-8.27e-06,0.0,0 STARLINK-4573,1 53623U 22104AM  23260.88959709 -.00000827  00000-0 -33853-4 0  9991,2 53623  53.2176 331.3129 0002021  75.2452 284.8764 15.08842597 58626,6917.872,95.437,541.136,538.339,0.0
53623.0,STARLINK-4573,PAYLOAD,2023-09-18 10:04:05,15.08854983,0.0001399,53.2176,328.9338,78.7935,281.3214,0.00022627,3.316e-05,0.0,0 STARLINK-4573,1 53623U 22104AM  23261.41950790  .00003316  00000-0  22627-3 0  9992,2 53623  53.2176 328.9338 0001399  78.7935 281.3214 15.08854983 58704,6917.835,95.437,540.667,538.732,0.0
53623.0,STARLINK-4573,PAYLOAD,2023-09-18 11:39:28,15.0885638,0.0001453,53.218,328.6364,76.3359,283.7795,0.00030608,4.589e-05,0.0,0 STARLINK-4573,1 53623U 22104AM  23261.48574757  .00004589  00000-0  30608-3 0  9995,2 53623  53.2180 328.6364 0001453  76.3359 283.7795 15.08856380 59399,6917.83,95.437,540.7,538.69,0.0
53623.0,STARLINK-4573,PAYLOAD,2023-09-18 16:25:37,15.08864913,0.0001395,53.2179,327.7448,79.6787,280.4362,0.00081653,0.0001274,0.0,0 STARLINK-4573,1 53623U 22104AM  23261.68446460  .00012740  00000-0  81653-3 0  9990,2 53623  53.2179 327.7448 0001395  79.6787 280.4362 15.08864913 59425,6917.804,95.436,540.634,538.704,0.0
53623.0,STARLINK-4573,PAYLOAD,2023-09-18 21:11:48,15.08836478,0.0002484,53.218,326.8502,76.4951,283.6317,-0.00014997,-2.674e-05,0.0,0 STARLINK-4573,1 53623U 22104AM  23261.88319488 -.00002674  00000-0 -14997-3 0  9995,2 53623  53.2180 326.8502 0002484  76.4951 283.6317 15.08836478 58773,6917.891,95.438,541.475,538.038,0.0
53623.0,STARLINK-4573,PAYLOAD,2023-09-19 09:54:52,15.08853505,0.0001422,53.2175,324.4724,78.8653,281.2499,0.00031,4.651e-05,0.0,0 STARLINK-4573,1 53623U 22104AM  23262.41310503  .00004651  00000-0  31000-3 0  9993,2 53623  53.2175 324.4724 0001422  78.8653 281.2499 15.08853505 58857,6917.839,95.437,540.688,538.72,0.0
